STARLINK-32106          
1 59690U 24086J   26068.38247086 -.00000863  00000+0 -21801-4 0  9993
2 59690  43.0082  53.9773 0003113 282.9048  77.1456 15.27572207104152
FLOCK 4G-21             
1 62651U 25009AU  26068.19487675  .00013648  00000+0  49619-3 0  9998
2 62651  97.4032 151.1274 0000465 329.5782  30.5431 15.28381075 63677
